[{"OBJECT_NAME":"GLOBAL-2","OBJECT_ID":"2018-099BG","EPOCH":"2026-03-09T16:47:21.463008","MEAN_MOTION":15.08046936,"ECCENTRICITY":0.00074537,"INCLINATION":97.3697,"RA_OF_ASC_NODE":109.328,"ARG_OF_PERICENTER":127.1924,"MEAN_ANOMALY":232.9986,"EPHEMERIS_TYPE":0,"CLASSIFICATION_TYPE":"U","NORAD_CAT_ID":43812,"ELEMENT_SET_NO":999,"REV_AT_EPOCH":39691,"BSTAR":0.0002614533,"MEAN_MOTION_DOT":3.97e-5,"MEAN_MOTION_DDOT":0},{"OBJECT_NAME":"STARLINK-5094","OBJECT_ID":"2022-125P","EPOCH":"2026-03-09T21:47:22.890048","MEAN_MOTION":15.08836027,"ECCENTRICITY":0.00011154,"INCLINATION":53.2166,"RA_OF_ASC_NODE":218.2515,"ARG_OF_PERICENTER":89.3412,"MEAN_ANOMALY":270.7708,"EPHEMERIS_TYPE":0,"CLASSIFICATION_TYPE":"U","NORAD_CAT_ID":53977,"ELEMENT_SET_NO":999,"REV_AT_EPOCH":18942,"BSTAR":1.5725436e-5,"MEAN_MOTION_DOT":-3.8e-7,"MEAN_MOTION_DDOT":0}]
